{
"type": "FeatureCollection",
"name": "animal_survey",
"crs": { "type": "name", "properties": { "name": "urn:ogc:def:crs:OGC:1.3:CRS84" } },
"features": [
{ "type": "Feature", "properties": { "name": "テスト動物", "date": "2026-04-10", "weather": "曇り", "memo": "テスト", "photo": "DCIM/animal-survey_20260411230525297.jpg" }, "geometry": { "type": "Point", "coordinates": [ 139.172238080824343, 35.848513038286491 ] } },
{ "type": "Feature", "properties": { "name": "テスト動物A", "date": "2026-03-30", "weather": "曇り", "memo": "テスト", "photo": "DCIM/animal-survey_20260411231839233.jpg" }, "geometry": { "type": "Point", "coordinates": [ 139.159219086918483, 35.857167034395211 ] } },
{ "type": "Feature", "properties": { "name": "テスト動物B", "date": "2026-04-06", "weather": "晴れ", "memo": "テスト", "photo": "DCIM/animal-survey_20260411231923935.jpg" }, "geometry": { "type": "Point", "coordinates": [ 139.159928485019577, 35.856007774083686 ] } },
{ "type": "Feature", "properties": { "name": "テスト動物C", "date": "2026-04-11", "weather": "晴れ", "memo": "テスト", "photo": "DCIM/animal-survey_20260411232017677.jpg" }, "geometry": { "type": "Point", "coordinates": [ 139.163960102563038, 35.859621898285084 ] } },
{ "type": "Feature", "properties": { "name": "テスト動物D", "date": "2026-04-15", "weather": "晴れ", "memo": "テスト", "photo": "DCIM/animal-survey_20260411232713979.jpg" }, "geometry": { "type": "Point", "coordinates": [ 139.180604192551868, 35.867716077091302 ] } },
{ "type": "Feature", "properties": { "name": "雷鳥", "date": "2026-05-01", "weather": "雨", "memo": "周りは濃い霧に包まれていました。", "photo": "DCIM/animal-survey_20260501195600968.jpg" }, "geometry": { "type": "Point", "coordinates": [ 137.714867889702759, 36.39984049666414 ] } },
{ "type": "Feature", "properties": { "name": "霧氷", "date": "2026-05-02", "weather": "晴れ", "memo": "昨日が雨のためできた霧氷", "photo": "DCIM/animal-survey_20260502082525286.jpg" }, "geometry": { "type": "Point", "coordinates": [ 137.715412836068197, 36.398687416746377 ] } }
]
}
