{
"type": "FeatureCollection",
"name": "flower_survey",
"crs": { "type": "name", "properties": { "name": "urn:ogc:def:crs:OGC:1.3:CRS84" } },
"features": [
{ "type": "Feature", "properties": { "site_id": "{5fc90cfc-bdc9-4fd3-9efe-95f80d66cdf3}", "name": "テスト花", "status": "散り始め", "radius_m": 100.0, "date": "2026-04-10", "photo": "files/20260411140446766_PXL_20260403_082249689.jpg", "memo": "テスト" }, "geometry": { "type": "Point", "coordinates": [ 139.173114659867338, 35.848560420937474, 0.0 ] } },
{ "type": "Feature", "properties": { "site_id": "{03b061e3-4926-4139-a156-573cfaea7f4c}", "name": "テスト花A", "status": "つぼみ", "radius_m": 50.0, "date": "2026-03-31", "photo": "files/20260411142110049_PXL_20260402_030445683.jpg", "memo": "テスト" }, "geometry": { "type": "Point", "coordinates": [ 139.159783114172171, 35.857001429153101, 0.0 ] } },
{ "type": "Feature", "properties": { "site_id": "{9943a5c1-2f84-477c-b201-081ed13b2698}", "name": "テスト花B", "status": "咲き始め", "radius_m": 40.0, "date": "2026-04-09", "photo": "files/20260411142151177_PXL_20260401_224509482.jpg", "memo": "テスト" }, "geometry": { "type": "Point", "coordinates": [ 139.171548159297032, 35.869490009121691, 0.0 ] } },
{ "type": "Feature", "properties": { "site_id": "{b8cd5e99-ce12-4a60-b2f8-0f3745fdeba8}", "name": "テスト花B", "status": "見頃", "radius_m": 40.0, "date": "2026-04-11", "photo": "files/20260411142309885_PXL_20260401_205304901.jpg", "memo": "テスト" }, "geometry": { "type": "Point", "coordinates": [ 139.178563828390622, 35.866159662615395, 0.0 ] } },
{ "type": "Feature", "properties": { "site_id": "{25dadb44-ad3d-4e9a-8aaa-c3e89233c445}", "name": "テスト花C", "status": "散り始め", "radius_m": 30.0, "date": "2026-04-14", "photo": "files/20260411142445319_PXL_20260330_051658843.jpg", "memo": "テスト" }, "geometry": { "type": "Point", "coordinates": [ 139.165067883601921, 35.863190232556676, 0.0 ] } },
{ "type": "Feature", "properties": { "site_id": "{0ec2bc06-1c94-4471-be30-c94b923b9f82}", "name": "ミヤマキンバイ", "status": "見頃", "radius_m": 20.0, "date": "2026-06-09", "photo": "files/20260609043648981_PXL_20260609_043513277.jpg", "memo": null }, "geometry": { "type": "Point", "coordinates": [ 137.707873108072846, 36.390209748366296, 0.0 ] } },
{ "type": "Feature", "properties": { "site_id": "{807aef76-e1db-4de3-977e-236fb5b8e2f1}", "name": "イワウメ", "status": "見頃", "radius_m": 20.0, "date": "2026-06-09", "photo": "files/20260609043821247_PXL_20260609_043750415.jpg", "memo": null }, "geometry": { "type": "Point", "coordinates": [ 137.708032965472597, 36.390472807494689, 0.0 ] } },
{ "type": "Feature", "properties": { "site_id": "{03ca3445-4aa2-482c-b8b2-247f6efce75c}", "name": "ミヤマキンバイ", "status": "見頃", "radius_m": 50.0, "date": "2026-06-09", "photo": "files/20260609044134283_PXL_20260609_044111299.jpg", "memo": null }, "geometry": { "type": "Point", "coordinates": [ 137.708582365412155, 36.391866011399685, 0.0 ] } },
{ "type": "Feature", "properties": { "site_id": "{22e2bc98-9173-4d0b-b2e8-6703461dfeb1}", "name": "不明", "status": "咲き始め", "radius_m": 10.0, "date": "2026-06-09", "photo": "files/20260609044320959_PXL_20260609_044250196.jpg", "memo": null }, "geometry": { "type": "Point", "coordinates": [ 137.708702941516918, 36.392048530840093, 0.0 ] } },
{ "type": "Feature", "properties": { "site_id": "{22ac44f5-5997-4fe9-bb5f-d75a38e72760}", "name": "ミヤマキンバイ", "status": "見頃", "radius_m": 50.0, "date": "2026-06-09", "photo": "files/20260609044614528_PXL_20260609_044542358.jpg", "memo": null }, "geometry": { "type": "Point", "coordinates": [ 137.709360362057311, 36.393023163181297, 0.0 ] } },
{ "type": "Feature", "properties": { "site_id": "{986855e8-cc0d-49c0-a5b7-fca9074dfb36}", "name": "イワウメ", "status": "見頃", "radius_m": 50.0, "date": "2026-06-09", "photo": "files/20260609044709351_PXL_20260609_044657543.jpg", "memo": null }, "geometry": { "type": "Point", "coordinates": [ 137.70948162897119, 36.393350946790306, 0.0 ] } }
]
}
