{
"type": "FeatureCollection",
"name": "indoor_survey",
"crs": { "type": "name", "properties": { "name": "urn:ogc:def:crs:OGC:1.3:CRS84" } },
"features": [
{ "type": "Feature", "properties": { "Building": "その他", "Floor": "1F", "Carrier": "au", "SignalLevel": 4 }, "geometry": { "type": "Point", "coordinates": [ 139.18096379418725, 35.871494205323984 ] } },
{ "type": "Feature", "properties": { "Building": "その他", "Floor": "1F", "Carrier": "au", "SignalLevel": 4 }, "geometry": { "type": "Point", "coordinates": [ 139.18093004986747, 35.871501755162178 ] } },
{ "type": "Feature", "properties": { "Building": "その他", "Floor": "1F", "Carrier": "au", "SignalLevel": 3 }, "geometry": { "type": "Point", "coordinates": [ 139.180912015233531, 35.871499001956131 ] } },
{ "type": "Feature", "properties": { "Building": "その他", "Floor": "1F", "Carrier": "au", "SignalLevel": 3 }, "geometry": { "type": "Point", "coordinates": [ 139.18089805880652, 35.871461146912587 ] } },
{ "type": "Feature", "properties": { "Building": "その他", "Floor": "1F", "Carrier": "au", "SignalLevel": 4 }, "geometry": { "type": "Point", "coordinates": [ 139.180938216381037, 35.871464341477981 ] } },
{ "type": "Feature", "properties": { "Building": "その他", "Floor": "1F", "Carrier": "au", "SignalLevel": 4 }, "geometry": { "type": "Point", "coordinates": [ 139.180961385004451, 35.871467149795976 ] } },
{ "type": "Feature", "properties": { "Building": "その他", "Floor": "1F", "Carrier": "au", "SignalLevel": 4 }, "geometry": { "type": "Point", "coordinates": [ 139.180937514301462, 35.87152331615583 ] } },
{ "type": "Feature", "properties": { "Building": "その他", "Floor": "1F", "Carrier": "au", "SignalLevel": 4 }, "geometry": { "type": "Point", "coordinates": [ 139.180990872343301, 35.871493126737391 ] } },
{ "type": "Feature", "properties": { "Building": "その他", "Floor": "1F", "Carrier": "au", "SignalLevel": 4 }, "geometry": { "type": "Point", "coordinates": [ 139.180995084820296, 35.87146153315998 ] } },
{ "type": "Feature", "properties": { "Building": "その他", "Floor": "1F", "Carrier": "au", "SignalLevel": 4 }, "geometry": { "type": "Point", "coordinates": [ 139.18102316800028, 35.871491722578398 ] } },
{ "type": "Feature", "properties": { "Building": "その他", "Floor": "1F", "Carrier": "au", "SignalLevel": 4 }, "geometry": { "type": "Point", "coordinates": [ 139.181026678397728, 35.871463639398463 ] } },
{ "type": "Feature", "properties": { "Building": "その他", "Floor": "1F", "Carrier": "au", "SignalLevel": 4 }, "geometry": { "type": "Point", "coordinates": [ 139.1809648954019, 35.871525422394335 ] } },
{ "type": "Feature", "properties": { "Building": "その他", "Floor": "1F", "Carrier": "au", "SignalLevel": 4 }, "geometry": { "type": "Point", "coordinates": [ 139.180937514301519, 35.871552101415247 ] } },
{ "type": "Feature", "properties": { "Building": "その他", "Floor": "1F", "Carrier": "au", "SignalLevel": 3 }, "geometry": { "type": "Point", "coordinates": [ 139.180905218644682, 35.871523316155788 ] } },
{ "type": "Feature", "properties": { "Building": "その他", "Floor": "1F", "Carrier": "au", "SignalLevel": 3 }, "geometry": { "type": "Point", "coordinates": [ 139.1809059207242, 35.871558420130675 ] } },
{ "type": "Feature", "properties": { "Building": "その他", "Floor": "1F", "Carrier": "au", "SignalLevel": 3 }, "geometry": { "type": "Point", "coordinates": [ 139.1809059207242, 35.871585099151595 ] } },
{ "type": "Feature", "properties": { "Building": "その他", "Floor": "1F", "Carrier": "au", "SignalLevel": 4 }, "geometry": { "type": "Point", "coordinates": [ 139.180905218644682, 35.871436258297926 ] } },
{ "type": "Feature", "properties": { "Building": "その他", "Floor": "1F", "Carrier": "au", "SignalLevel": 4 }, "geometry": { "type": "Point", "coordinates": [ 139.180932599745063, 35.871436258297919 ] } },
{ "type": "Feature", "properties": { "Building": "その他", "Floor": "1F", "Carrier": "au", "SignalLevel": 4 }, "geometry": { "type": "Point", "coordinates": [ 139.180964895401843, 35.871434854138933 ] } },
{ "type": "Feature", "properties": { "Building": "その他", "Floor": "1F", "Carrier": "au", "SignalLevel": 3 }, "geometry": { "type": "Point", "coordinates": [ 139.18087853962362, 35.87143766245692 ] } },
{ "type": "Feature", "properties": { "Building": "その他", "Floor": "1F", "Carrier": "au", "SignalLevel": 3 }, "geometry": { "type": "Point", "coordinates": [ 139.180877135464755, 35.871462937318846 ] } },
{ "type": "Feature", "properties": { "Building": "その他", "Floor": "1F", "Carrier": "au", "SignalLevel": 3 }, "geometry": { "type": "Point", "coordinates": [ 139.180876433385265, 35.871495232975775 ] } },
{ "type": "Feature", "properties": { "Building": "その他", "Floor": "1F", "Carrier": "au", "SignalLevel": 3 }, "geometry": { "type": "Point", "coordinates": [ 139.180875731305804, 35.871523316155702 ] } },
{ "type": "Feature", "properties": { "Building": "その他", "Floor": "1F", "Carrier": "au", "SignalLevel": 3 }, "geometry": { "type": "Point", "coordinates": [ 139.180846946046387, 35.871432045820953 ] } },
{ "type": "Feature", "properties": { "Building": "その他", "Floor": "1F", "Carrier": "au", "SignalLevel": 3 }, "geometry": { "type": "Point", "coordinates": [ 139.180848350205395, 35.871406068879516 ] } },
{ "type": "Feature", "properties": { "Building": "その他", "Floor": "1F", "Carrier": "au", "SignalLevel": 3 }, "geometry": { "type": "Point", "coordinates": [ 139.180849754364402, 35.871460831080356 ] } },
{ "type": "Feature", "properties": { "Building": "その他", "Floor": "1F", "Carrier": "au", "SignalLevel": 3 }, "geometry": { "type": "Point", "coordinates": [ 139.180845541887408, 35.87149242465776 ] } },
{ "type": "Feature", "properties": { "Building": "その他", "Floor": "1F", "Carrier": "au", "SignalLevel": 3 }, "geometry": { "type": "Point", "coordinates": [ 139.180847648125848, 35.871521911996695 ] } },
{ "type": "Feature", "properties": { "Building": "その他", "Floor": "1F", "Carrier": "au", "SignalLevel": 3 }, "geometry": { "type": "Point", "coordinates": [ 139.18087573130569, 35.871552803494602 ] } },
{ "type": "Feature", "properties": { "Building": "その他", "Floor": "1F", "Carrier": "au", "SignalLevel": 3 }, "geometry": { "type": "Point", "coordinates": [ 139.180877135464641, 35.871582992913055 ] } },
{ "type": "Feature", "properties": { "Building": "その他", "Floor": "1F", "Carrier": "au", "SignalLevel": 3 }, "geometry": { "type": "Point", "coordinates": [ 139.180846243966698, 35.871581588754061 ] } },
{ "type": "Feature", "properties": { "Building": "その他", "Floor": "1F", "Carrier": "au", "SignalLevel": 3 }, "geometry": { "type": "Point", "coordinates": [ 139.180845541887209, 35.871554909733135 ] } },
{ "type": "Feature", "properties": { "Building": "その他", "Floor": "1F", "Carrier": "au", "SignalLevel": 3 }, "geometry": { "type": "Point", "coordinates": [ 139.180817458707423, 35.871584397072056 ] } },
{ "type": "Feature", "properties": { "Building": "その他", "Floor": "1F", "Carrier": "au", "SignalLevel": 3 }, "geometry": { "type": "Point", "coordinates": [ 139.180816756627991, 35.871554207653631 ] } },
{ "type": "Feature", "properties": { "Building": "その他", "Floor": "1F", "Carrier": "au", "SignalLevel": 2 }, "geometry": { "type": "Point", "coordinates": [ 139.180815352468983, 35.871525422394214 ] } },
{ "type": "Feature", "properties": { "Building": "その他", "Floor": "1F", "Carrier": "au", "SignalLevel": 2 }, "geometry": { "type": "Point", "coordinates": [ 139.180816054548472, 35.871494530896292 ] } },
{ "type": "Feature", "properties": { "Building": "その他", "Floor": "1F", "Carrier": "au", "SignalLevel": 2 }, "geometry": { "type": "Point", "coordinates": [ 139.180814650389493, 35.871461533159874 ] } },
{ "type": "Feature", "properties": { "Building": "その他", "Floor": "1F", "Carrier": "au", "SignalLevel": 2 }, "geometry": { "type": "Point", "coordinates": [ 139.180813246230457, 35.871434152059436 ] } },
{ "type": "Feature", "properties": { "Building": "その他", "Floor": "1F", "Carrier": "au", "SignalLevel": 3 }, "geometry": { "type": "Point", "coordinates": [ 139.180813948309947, 35.871403962641018 ] } },
{ "type": "Feature", "properties": { "Building": "その他", "Floor": "1F", "Carrier": "au", "SignalLevel": 1 }, "geometry": { "type": "Point", "coordinates": [ 139.180788673448006, 35.871464341477861 ] } },
{ "type": "Feature", "properties": { "Building": "その他", "Floor": "1F", "Carrier": "au", "SignalLevel": 1 }, "geometry": { "type": "Point", "coordinates": [ 139.18078516305053, 35.871494530896292 ] } },
{ "type": "Feature", "properties": { "Building": "その他", "Floor": "1F", "Carrier": "au", "SignalLevel": 1 }, "geometry": { "type": "Point", "coordinates": [ 139.180785865130019, 35.871522614076206 ] } },
{ "type": "Feature", "properties": { "Building": "その他", "Floor": "1F", "Carrier": "au", "SignalLevel": 2 }, "geometry": { "type": "Point", "coordinates": [ 139.180789375527524, 35.871434854138933 ] } },
{ "type": "Feature", "properties": { "Building": "その他", "Floor": "1F", "Carrier": "au", "SignalLevel": 3 }, "geometry": { "type": "Point", "coordinates": [ 139.180784460971012, 35.871401856402528 ] } },
{ "type": "Feature", "properties": { "Building": "その他", "Floor": "1F", "Carrier": "au", "SignalLevel": 2 }, "geometry": { "type": "Point", "coordinates": [ 139.180784460971097, 35.871553505574163 ] } },
{ "type": "Feature", "properties": { "Building": "その他", "Floor": "1F", "Carrier": "au", "SignalLevel": 2 }, "geometry": { "type": "Point", "coordinates": [ 139.180754973632219, 35.871554207653631 ] } },
{ "type": "Feature", "properties": { "Building": "その他", "Floor": "1F", "Carrier": "au", "SignalLevel": 1 }, "geometry": { "type": "Point", "coordinates": [ 139.180756377791198, 35.871527528632704 ] } },
{ "type": "Feature", "properties": { "Building": "その他", "Floor": "1F", "Carrier": "au", "SignalLevel": 0 }, "geometry": { "type": "Point", "coordinates": [ 139.180752165314203, 35.871491722578298 ] } },
{ "type": "Feature", "properties": { "Building": "その他", "Floor": "1F", "Carrier": "au", "SignalLevel": 0 }, "geometry": { "type": "Point", "coordinates": [ 139.18075567571168, 35.871461533159874 ] } },
{ "type": "Feature", "properties": { "Building": "その他", "Floor": "1F", "Carrier": "au", "SignalLevel": 1 }, "geometry": { "type": "Point", "coordinates": [ 139.180754271552672, 35.87143204582096 ] } },
{ "type": "Feature", "properties": { "Building": "その他", "Floor": "1F", "Carrier": "au", "SignalLevel": 3 }, "geometry": { "type": "Point", "coordinates": [ 139.180754271552644, 35.87140396264104 ] } },
{ "type": "Feature", "properties": { "Building": "その他", "Floor": "1F", "Carrier": "au", "SignalLevel": 1 }, "geometry": { "type": "Point", "coordinates": [ 139.180726890452235, 35.871493828816796 ] } },
{ "type": "Feature", "properties": { "Building": "その他", "Floor": "1F", "Carrier": "au", "SignalLevel": 1 }, "geometry": { "type": "Point", "coordinates": [ 139.18072899669076, 35.871467851875366 ] } },
{ "type": "Feature", "properties": { "Building": "その他", "Floor": "1F", "Carrier": "au", "SignalLevel": 3 }, "geometry": { "type": "Point", "coordinates": [ 139.180726890452291, 35.871435556218444 ] } },
{ "type": "Feature", "properties": { "Building": "その他", "Floor": "1F", "Carrier": "au", "SignalLevel": 2 }, "geometry": { "type": "Point", "coordinates": [ 139.180698807272364, 35.87146083108037 ] } },
{ "type": "Feature", "properties": { "Building": "その他", "Floor": "1F", "Carrier": "au", "SignalLevel": 2 }, "geometry": { "type": "Point", "coordinates": [ 139.180695296874802, 35.871493828816789 ] } },
{ "type": "Feature", "properties": { "Building": "その他", "Floor": "1F", "Carrier": "au", "SignalLevel": 2 }, "geometry": { "type": "Point", "coordinates": [ 139.180728294611129, 35.871524018235206 ] } },
{ "type": "Feature", "properties": { "Building": "その他", "Floor": "1F", "Carrier": "au", "SignalLevel": 3 }, "geometry": { "type": "Point", "coordinates": [ 139.18072548629317, 35.871554909733113 ] } },
{ "type": "Feature", "properties": { "Building": "その他", "Floor": "1F", "Carrier": "au", "SignalLevel": 3 }, "geometry": { "type": "Point", "coordinates": [ 139.180697403113271, 35.871524018235185 ] } },
{ "type": "Feature", "properties": { "Building": "その他", "Floor": "1F", "Carrier": "au", "SignalLevel": 3 }, "geometry": { "type": "Point", "coordinates": [ 139.180667213694761, 35.871493126737278 ] } },
{ "type": "Feature", "properties": { "Building": "その他", "Floor": "1F", "Carrier": "au", "SignalLevel": 3 }, "geometry": { "type": "Point", "coordinates": [ 139.180667213694761, 35.871461533159867 ] } },
{ "type": "Feature", "properties": { "Building": "その他", "Floor": "1F", "Carrier": "au", "SignalLevel": 3 }, "geometry": { "type": "Point", "coordinates": [ 139.180696701033611, 35.871435556218451 ] } },
{ "type": "Feature", "properties": { "Building": "その他", "Floor": "2F", "Carrier": "au", "SignalLevel": 4 }, "geometry": { "type": "Point", "coordinates": [ 139.180876651510943, 35.871411059085879 ] } },
{ "type": "Feature", "properties": { "Building": "その他", "Floor": "2F", "Carrier": "au", "SignalLevel": 3 }, "geometry": { "type": "Point", "coordinates": [ 139.180782326703024, 35.871583714242746 ] } },
{ "type": "Feature", "properties": { "Building": "その他", "Floor": "2F", "Carrier": "au", "SignalLevel": 3 }, "geometry": { "type": "Point", "coordinates": [ 139.180760171161523, 35.871377395118145 ] } },
{ "type": "Feature", "properties": { "Building": "その他", "Floor": "1F", "Carrier": "au", "SignalLevel": 3 }, "geometry": { "type": "Point", "coordinates": [ 139.18066699645064, 35.87152736722765 ] } },
{ "type": "Feature", "properties": { "Building": "その他", "Floor": "1F", "Carrier": "au", "SignalLevel": 3 }, "geometry": { "type": "Point", "coordinates": [ 139.180779320007048, 35.871375497979528 ] } },
{ "type": "Feature", "properties": { "Building": "その他", "Floor": "1F", "Carrier": "au", "SignalLevel": 4 }, "geometry": { "type": "Point", "coordinates": [ 139.180693755043308, 35.871557773998923 ] } },
{ "type": "Feature", "properties": { "Building": "燕山荘", "Floor": "2F", "Carrier": "docomo", "SignalLevel": 3 }, "geometry": { "type": "Point", "coordinates": [ 137.715222320107557, 36.399381555904206 ] } },
{ "type": "Feature", "properties": { "Building": "燕山荘", "Floor": "2F", "Carrier": "docomo", "SignalLevel": 2 }, "geometry": { "type": "Point", "coordinates": [ 137.715222320107557, 36.399344449430522 ] } },
{ "type": "Feature", "properties": { "Building": "燕山荘", "Floor": "1F", "Carrier": "docomo", "SignalLevel": 1 }, "geometry": { "type": "Point", "coordinates": [ 137.715224568984752, 36.399312965149818 ] } },
{ "type": "Feature", "properties": { "Building": "燕山荘", "Floor": "1F", "Carrier": "docomo", "SignalLevel": 1 }, "geometry": { "type": "Point", "coordinates": [ 137.715197582458416, 36.39928597862351 ] } },
{ "type": "Feature", "properties": { "Building": "燕山荘", "Floor": "1F", "Carrier": "docomo", "SignalLevel": 3 }, "geometry": { "type": "Point", "coordinates": [ 137.71519983133561, 36.399243249956854 ] } },
{ "type": "Feature", "properties": { "Building": "燕山荘", "Floor": "1F", "Carrier": "docomo", "SignalLevel": 3 }, "geometry": { "type": "Point", "coordinates": [ 137.715220071230334, 36.399254494342813 ] } },
{ "type": "Feature", "properties": { "Building": "燕山荘", "Floor": "1F", "Carrier": "docomo", "SignalLevel": 3 }, "geometry": { "type": "Point", "coordinates": [ 137.715220071230334, 36.399221885623518 ] } },
{ "type": "Feature", "properties": { "Building": "燕山荘", "Floor": "1F", "Carrier": "docomo", "SignalLevel": 3 }, "geometry": { "type": "Point", "coordinates": [ 137.715257177704018, 36.399251121027028 ] } },
{ "type": "Feature", "properties": { "Building": "燕山荘", "Floor": "1F", "Carrier": "docomo", "SignalLevel": 3 }, "geometry": { "type": "Point", "coordinates": [ 137.715254928826823, 36.399223010062116 ] } },
{ "type": "Feature", "properties": { "Building": "燕山荘", "Floor": "1F", "Carrier": "docomo", "SignalLevel": 3 }, "geometry": { "type": "Point", "coordinates": [ 137.715258302142615, 36.399188152465634 ] } },
{ "type": "Feature", "properties": { "Building": "燕山荘", "Floor": "1F", "Carrier": "docomo", "SignalLevel": 3 }, "geometry": { "type": "Point", "coordinates": [ 137.715257177704018, 36.399158917062131 ] } },
{ "type": "Feature", "properties": { "Building": "燕山荘", "Floor": "1F", "Carrier": "docomo", "SignalLevel": 4 }, "geometry": { "type": "Point", "coordinates": [ 137.715284164230326, 36.399104944009508 ] } },
{ "type": "Feature", "properties": { "Building": "燕山荘", "Floor": "1F", "Carrier": "docomo", "SignalLevel": 4 }, "geometry": { "type": "Point", "coordinates": [ 137.715283039791757, 36.399080206360395 ] } },
{ "type": "Feature", "properties": { "Building": "燕山荘", "Floor": "1F", "Carrier": "docomo", "SignalLevel": 4 }, "geometry": { "type": "Point", "coordinates": [ 137.715293159739133, 36.399046473202503 ] } },
{ "type": "Feature", "properties": { "Building": "燕山荘", "Floor": "1F", "Carrier": "docomo", "SignalLevel": 4 }, "geometry": { "type": "Point", "coordinates": [ 137.715284164230383, 36.399007117851625 ] } },
{ "type": "Feature", "properties": { "Building": "燕山荘", "Floor": "1F", "Carrier": "docomo", "SignalLevel": 4 }, "geometry": { "type": "Point", "coordinates": [ 137.715285308838787, 36.398985477911346 ] } },
{ "type": "Feature", "properties": { "Building": "燕山荘", "Floor": "1F", "Carrier": "docomo", "SignalLevel": 4 }, "geometry": { "type": "Point", "coordinates": [ 137.715315157446241, 36.399008994995981 ] } },
{ "type": "Feature", "properties": { "Building": "燕山荘", "Floor": "1F", "Carrier": "docomo", "SignalLevel": 1 }, "geometry": { "type": "Point", "coordinates": [ 137.715316966452775, 36.399043366119692 ] } },
{ "type": "Feature", "properties": { "Building": "燕山荘", "Floor": "1F", "Carrier": "docomo", "SignalLevel": 1 }, "geometry": { "type": "Point", "coordinates": [ 137.715352242079717, 36.399023467048075 ] } },
{ "type": "Feature", "properties": { "Building": "燕山荘", "Floor": "1F", "Carrier": "docomo", "SignalLevel": 4 }, "geometry": { "type": "Point", "coordinates": [ 137.715379377177413, 36.399021658041555 ] } },
{ "type": "Feature", "properties": { "Building": "燕山荘", "Floor": "1F", "Carrier": "docomo", "SignalLevel": 4 }, "geometry": { "type": "Point", "coordinates": [ 137.715406512275052, 36.399039748106659 ] } },
{ "type": "Feature", "properties": { "Building": "燕山荘", "Floor": "1F", "Carrier": "docomo", "SignalLevel": 4 }, "geometry": { "type": "Point", "coordinates": [ 137.715410130288092, 36.399008994995981 ] } },
{ "type": "Feature", "properties": { "Building": "燕山荘", "Floor": "1F", "Carrier": "docomo", "SignalLevel": 4 }, "geometry": { "type": "Point", "coordinates": [ 137.715373950157897, 36.399044270622937 ] } },
{ "type": "Feature", "properties": { "Building": "燕山荘", "Floor": "1F", "Carrier": "docomo", "SignalLevel": 1 }, "geometry": { "type": "Point", "coordinates": [ 137.715342292543966, 36.399042461616432 ] } },
{ "type": "Feature", "properties": { "Building": "燕山荘", "Floor": "2F", "Carrier": "docomo", "SignalLevel": 2 }, "geometry": { "type": "Point", "coordinates": [ 137.715343197047218, 36.399017135525284 ] } },
{ "type": "Feature", "properties": { "Building": "燕山荘", "Floor": "2F", "Carrier": "docomo", "SignalLevel": 4 }, "geometry": { "type": "Point", "coordinates": [ 137.715380281680666, 36.399012613009006 ] } },
{ "type": "Feature", "properties": { "Building": "燕山荘", "Floor": "2F", "Carrier": "docomo", "SignalLevel": 4 }, "geometry": { "type": "Point", "coordinates": [ 137.715405607771828, 36.399015326518771 ] } },
{ "type": "Feature", "properties": { "Building": "燕山荘", "Floor": "2F", "Carrier": "docomo", "SignalLevel": 4 }, "geometry": { "type": "Point", "coordinates": [ 137.715405607771828, 36.399044270622937 ] } },
{ "type": "Feature", "properties": { "Building": "燕山荘", "Floor": "2F", "Carrier": "docomo", "SignalLevel": 4 }, "geometry": { "type": "Point", "coordinates": [ 137.71537485466115, 36.399049697642468 ] } },
{ "type": "Feature", "properties": { "Building": "燕山荘", "Floor": "2F", "Carrier": "docomo", "SignalLevel": 2 }, "geometry": { "type": "Point", "coordinates": [ 137.715337770027674, 36.399046079629443 ] } },
{ "type": "Feature", "properties": { "Building": "燕山荘", "Floor": "2F", "Carrier": "docomo", "SignalLevel": 4 }, "geometry": { "type": "Point", "coordinates": [ 137.715312443936568, 36.399013517512259 ] } },
{ "type": "Feature", "properties": { "Building": "燕山荘", "Floor": "2F", "Carrier": "docomo", "SignalLevel": 4 }, "geometry": { "type": "Point", "coordinates": [ 137.715289831355165, 36.399011708505746 ] } },
{ "type": "Feature", "properties": { "Building": "燕山荘", "Floor": "2F", "Carrier": "docomo", "SignalLevel": 4 }, "geometry": { "type": "Point", "coordinates": [ 137.715284404335677, 36.399046984132703 ] } },
{ "type": "Feature", "properties": { "Building": "燕山荘", "Floor": "2F", "Carrier": "docomo", "SignalLevel": 2 }, "geometry": { "type": "Point", "coordinates": [ 137.715309730426782, 36.399044270622937 ] } },
{ "type": "Feature", "properties": { "Building": "燕山荘", "Floor": "1F", "Carrier": "docomo", "SignalLevel": 4 }, "geometry": { "type": "Point", "coordinates": [ 137.71526088725102, 36.398952011290895 ] } },
{ "type": "Feature", "properties": { "Building": "燕山荘", "Floor": "1F", "Carrier": "docomo", "SignalLevel": 4 }, "geometry": { "type": "Point", "coordinates": [ 137.715254555728222, 36.398922162683476 ] } },
{ "type": "Feature", "properties": { "Building": "燕山荘", "Floor": "1F", "Carrier": "docomo", "SignalLevel": 4 }, "geometry": { "type": "Point", "coordinates": [ 137.715257269238009, 36.39888688705652 ] } },
{ "type": "Feature", "properties": { "Building": "燕山荘", "Floor": "2F", "Carrier": "docomo", "SignalLevel": 4 }, "geometry": { "type": "Point", "coordinates": [ 137.715287117845435, 36.398891409572798 ] } },
{ "type": "Feature", "properties": { "Building": "燕山荘", "Floor": "1F", "Carrier": "docomo", "SignalLevel": 4 }, "geometry": { "type": "Point", "coordinates": [ 137.715287117845435, 36.398891409572798 ] } },
{ "type": "Feature", "properties": { "Building": "燕山荘", "Floor": "1F", "Carrier": "docomo", "SignalLevel": 3 }, "geometry": { "type": "Point", "coordinates": [ 137.715259154038023, 36.39913555005171 ] } },
{ "type": "Feature", "properties": { "Building": "燕山荘", "Floor": "1F", "Carrier": "au", "SignalLevel": 3 }, "geometry": { "type": "Point", "coordinates": [ 137.715281083190831, 36.398983142439747 ] } },
{ "type": "Feature", "properties": { "Building": "燕山荘", "Floor": "1F", "Carrier": "au", "SignalLevel": 2 }, "geometry": { "type": "Point", "coordinates": [ 137.71528546902141, 36.399018229084234 ] } },
{ "type": "Feature", "properties": { "Building": "燕山荘", "Floor": "1F", "Carrier": "au", "SignalLevel": 2 }, "geometry": { "type": "Point", "coordinates": [ 137.715313976920015, 36.399012746796025 ] } },
{ "type": "Feature", "properties": { "Building": "燕山荘", "Floor": "1F", "Carrier": "au", "SignalLevel": 2 }, "geometry": { "type": "Point", "coordinates": [ 137.715311784004768, 36.39904564052523 ] } },
{ "type": "Feature", "properties": { "Building": "燕山荘", "Floor": "1F", "Carrier": "au", "SignalLevel": 3 }, "geometry": { "type": "Point", "coordinates": [ 137.715342484818649, 36.399043447609955 ] } },
{ "type": "Feature", "properties": { "Building": "燕山荘", "Floor": "1F", "Carrier": "au", "SignalLevel": 1 }, "geometry": { "type": "Point", "coordinates": [ 137.715345774191576, 36.399011650338387 ] } },
{ "type": "Feature", "properties": { "Building": "燕山荘", "Floor": "1F", "Carrier": "au", "SignalLevel": 1 }, "geometry": { "type": "Point", "coordinates": [ 137.715376475005542, 36.399016036168945 ] } },
{ "type": "Feature", "properties": { "Building": "燕山荘", "Floor": "1F", "Carrier": "au", "SignalLevel": 2 }, "geometry": { "type": "Point", "coordinates": [ 137.715375378547918, 36.399044544067586 ] } },
{ "type": "Feature", "properties": { "Building": "燕山荘", "Floor": "1F", "Carrier": "au", "SignalLevel": 3 }, "geometry": { "type": "Point", "coordinates": [ 137.715400597073597, 36.399047833440505 ] } },
{ "type": "Feature", "properties": { "Building": "燕山荘", "Floor": "2F", "Carrier": "au", "SignalLevel": 2 }, "geometry": { "type": "Point", "coordinates": [ 137.715345774191576, 36.399008360965468 ] } },
{ "type": "Feature", "properties": { "Building": "燕山荘", "Floor": "2F", "Carrier": "au", "SignalLevel": 3 }, "geometry": { "type": "Point", "coordinates": [ 137.715407175819394, 36.399047833440513 ] } },
{ "type": "Feature", "properties": { "Building": "燕山荘", "Floor": "2F", "Carrier": "au", "SignalLevel": 3 }, "geometry": { "type": "Point", "coordinates": [ 137.715373185632586, 36.399046736982875 ] } },
{ "type": "Feature", "properties": { "Building": "燕山荘", "Floor": "1F", "Carrier": "au", "SignalLevel": 3 }, "geometry": { "type": "Point", "coordinates": [ 137.715404982904147, 36.399013843253663 ] } },
{ "type": "Feature", "properties": { "Building": "燕山荘", "Floor": "2F", "Carrier": "au", "SignalLevel": 2 }, "geometry": { "type": "Point", "coordinates": [ 137.715404982904147, 36.399013843253663 ] } },
{ "type": "Feature", "properties": { "Building": "燕山荘", "Floor": "2F", "Carrier": "au", "SignalLevel": 2 }, "geometry": { "type": "Point", "coordinates": [ 137.715376475005485, 36.399007264507823 ] } },
{ "type": "Feature", "properties": { "Building": "燕山荘", "Floor": "2F", "Carrier": "au", "SignalLevel": 2 }, "geometry": { "type": "Point", "coordinates": [ 137.715347967106851, 36.399042351152303 ] } },
{ "type": "Feature", "properties": { "Building": "燕山荘", "Floor": "2F", "Carrier": "au", "SignalLevel": 2 }, "geometry": { "type": "Point", "coordinates": [ 137.715315073377667, 36.399043447609941 ] } },
{ "type": "Feature", "properties": { "Building": "燕山荘", "Floor": "2F", "Carrier": "au", "SignalLevel": 3 }, "geometry": { "type": "Point", "coordinates": [ 137.715318362750565, 36.399012746796018 ] } },
{ "type": "Feature", "properties": { "Building": "燕山荘", "Floor": "2F", "Carrier": "au", "SignalLevel": 3 }, "geometry": { "type": "Point", "coordinates": [ 137.71528546902141, 36.399012746796018 ] } },
{ "type": "Feature", "properties": { "Building": "燕山荘", "Floor": "2F", "Carrier": "au", "SignalLevel": 3 }, "geometry": { "type": "Point", "coordinates": [ 137.715283276106106, 36.399045640525223 ] } },
{ "type": "Feature", "properties": { "Building": "燕山荘", "Floor": "1F", "Carrier": "docomo", "SignalLevel": 4 }, "geometry": { "type": "Point", "coordinates": [ 137.715252268850662, 36.398983529299848 ] } },
{ "type": "Feature", "properties": { "Building": "燕山荘", "Floor": "1F", "Carrier": "au", "SignalLevel": 3 }, "geometry": { "type": "Point", "coordinates": [ 137.715252268850662, 36.398983529299848 ] } },
{ "type": "Feature", "properties": { "Building": "燕山荘", "Floor": "1F", "Carrier": "au", "SignalLevel": 3 }, "geometry": { "type": "Point", "coordinates": [ 137.715250509540368, 36.398958898955712 ] } },
{ "type": "Feature", "properties": { "Building": "燕山荘", "Floor": "1F", "Carrier": "au", "SignalLevel": 2 }, "geometry": { "type": "Point", "coordinates": [ 137.715252268850662, 36.398923712749806 ] } },
{ "type": "Feature", "properties": { "Building": "燕山荘", "Floor": "2F", "Carrier": "au", "SignalLevel": 3 }, "geometry": { "type": "Point", "coordinates": [ 137.715283936435981, 36.398894684129935 ] } },
{ "type": "Feature", "properties": { "Building": "燕山荘", "Floor": "1F", "Carrier": "au", "SignalLevel": 3 }, "geometry": { "type": "Point", "coordinates": [ 137.715284816091128, 36.398892045164487 ] } },
{ "type": "Feature", "properties": { "Building": "燕山荘", "Floor": "1F", "Carrier": "au", "SignalLevel": 3 }, "geometry": { "type": "Point", "coordinates": [ 137.715254028160984, 36.39889116550934 ] } },
{ "type": "Feature", "properties": { "Building": "燕山荘", "Floor": "1F", "Carrier": "au", "SignalLevel": 2 }, "geometry": { "type": "Point", "coordinates": [ 137.715288136069944, 36.399042847930239 ] } },
{ "type": "Feature", "properties": { "Building": "燕山荘", "Floor": "1F", "Carrier": "au", "SignalLevel": 1 }, "geometry": { "type": "Point", "coordinates": [ 137.715285061634319, 36.399076666721548 ] } },
{ "type": "Feature", "properties": { "Building": "燕山荘", "Floor": "1F", "Carrier": "au", "SignalLevel": 1 }, "geometry": { "type": "Point", "coordinates": [ 137.715284183224156, 36.399101262206145 ] } },
{ "type": "Feature", "properties": { "Building": "燕山荘", "Floor": "1F", "Carrier": "au", "SignalLevel": 1 }, "geometry": { "type": "Point", "coordinates": [ 137.715282865608941, 36.399132445766952 ] } },
{ "type": "Feature", "properties": { "Building": "燕山荘", "Floor": "1F", "Carrier": "au", "SignalLevel": 1 }, "geometry": { "type": "Point", "coordinates": [ 137.715252999663392, 36.399133763382196 ] } },
{ "type": "Feature", "properties": { "Building": "燕山荘", "Floor": "1F", "Carrier": "au", "SignalLevel": 1 }, "geometry": { "type": "Point", "coordinates": [ 137.715254756483688, 36.399165825353172 ] } },
{ "type": "Feature", "properties": { "Building": "燕山荘", "Floor": "1F", "Carrier": "au", "SignalLevel": 2 }, "geometry": { "type": "Point", "coordinates": [ 137.715252121253201, 36.399192616863168 ] } },
{ "type": "Feature", "properties": { "Building": "燕山荘", "Floor": "1F", "Carrier": "au", "SignalLevel": 1 }, "geometry": { "type": "Point", "coordinates": [ 137.715254807833105, 36.399224189405366 ] } },
{ "type": "Feature", "properties": { "Building": "燕山荘", "Floor": "1F", "Carrier": "au", "SignalLevel": 2 }, "geometry": { "type": "Point", "coordinates": [ 137.715224605846146, 36.39922469424252 ] } },
{ "type": "Feature", "properties": { "Building": "燕山荘", "Floor": "1F", "Carrier": "au", "SignalLevel": 1 }, "geometry": { "type": "Point", "coordinates": [ 137.715195883179462, 36.399255397782795 ] } },
{ "type": "Feature", "properties": { "Building": "燕山荘", "Floor": "1F", "Carrier": "au", "SignalLevel": 1 }, "geometry": { "type": "Point", "coordinates": [ 137.715193902305884, 36.399284120449501 ] } },
{ "type": "Feature", "properties": { "Building": "燕山荘", "Floor": "1F", "Carrier": "au", "SignalLevel": 1 }, "geometry": { "type": "Point", "coordinates": [ 137.715223120190984, 36.399315319208164 ] } },
{ "type": "Feature", "properties": { "Building": "燕山荘", "Floor": "1F", "Carrier": "au", "SignalLevel": 1 }, "geometry": { "type": "Point", "coordinates": [ 137.715225596282949, 36.399346517966826 ] } },
{ "type": "Feature", "properties": { "Building": "燕山荘", "Floor": "1F", "Carrier": "au", "SignalLevel": 1 }, "geometry": { "type": "Point", "coordinates": [ 137.715221139317435, 36.399372764541575 ] } },
{ "type": "Feature", "properties": { "Building": "燕山荘", "Floor": "2F", "Carrier": "docomo", "SignalLevel": 2 }, "geometry": { "type": "Point", "coordinates": [ 137.715226091501336, 36.399409905920933 ] } },
{ "type": "Feature", "properties": { "Building": "燕山荘", "Floor": "2F", "Carrier": "docomo", "SignalLevel": 2 }, "geometry": { "type": "Point", "coordinates": [ 137.715226586719751, 36.399435657277294 ] } },
{ "type": "Feature", "properties": { "Building": "燕山荘", "Floor": "2F", "Carrier": "docomo", "SignalLevel": 2 }, "geometry": { "type": "Point", "coordinates": [ 137.715229558030074, 36.399464379944007 ] } },
{ "type": "Feature", "properties": { "Building": "燕山荘", "Floor": "2F", "Carrier": "docomo", "SignalLevel": 2 }, "geometry": { "type": "Point", "coordinates": [ 137.715227577156526, 36.399494093047487 ] } },
{ "type": "Feature", "properties": { "Building": "燕山荘", "Floor": "2F", "Carrier": "docomo", "SignalLevel": 3 }, "geometry": { "type": "Point", "coordinates": [ 137.715253328512887, 36.399493597829093 ] } },
{ "type": "Feature", "properties": { "Building": "燕山荘", "Floor": "2F", "Carrier": "docomo", "SignalLevel": 3 }, "geometry": { "type": "Point", "coordinates": [ 137.715280070306051, 36.399467846472731 ] } },
{ "type": "Feature", "properties": { "Building": "燕山荘", "Floor": "2F", "Carrier": "docomo", "SignalLevel": 3 }, "geometry": { "type": "Point", "coordinates": [ 137.715288984237105, 36.399434171622104 ] } },
{ "type": "Feature", "properties": { "Building": "燕山荘", "Floor": "2F", "Carrier": "docomo", "SignalLevel": 2 }, "geometry": { "type": "Point", "coordinates": [ 137.715287003363528, 36.399400991989879 ] } },
{ "type": "Feature", "properties": { "Building": "燕山荘", "Floor": "2F", "Carrier": "docomo", "SignalLevel": 3 }, "geometry": { "type": "Point", "coordinates": [ 137.715292945984231, 36.399489140863558 ] } },
{ "type": "Feature", "properties": { "Building": "燕山荘", "Floor": "2F", "Carrier": "docomo", "SignalLevel": 4 }, "geometry": { "type": "Point", "coordinates": [ 137.7153162212486, 36.399524301369354 ] } },
{ "type": "Feature", "properties": { "Building": "燕山荘", "Floor": "2F", "Carrier": "docomo", "SignalLevel": 4 }, "geometry": { "type": "Point", "coordinates": [ 137.715319687777338, 36.399550547944102 ] } },
{ "type": "Feature", "properties": { "Building": "燕山荘", "Floor": "2F", "Carrier": "docomo", "SignalLevel": 4 }, "geometry": { "type": "Point", "coordinates": [ 137.715311269064671, 36.399585708449898 ] } },
{ "type": "Feature", "properties": { "Building": "燕山荘", "Floor": "2F", "Carrier": "docomo", "SignalLevel": 4 }, "geometry": { "type": "Point", "coordinates": [ 137.715285022489923, 36.399586698886679 ] } },
{ "type": "Feature", "properties": { "Building": "燕山荘", "Floor": "2F", "Carrier": "docomo", "SignalLevel": 4 }, "geometry": { "type": "Point", "coordinates": [ 137.715260756788751, 36.399585213231504 ] } },
{ "type": "Feature", "properties": { "Building": "燕山荘", "Floor": "2F", "Carrier": "docomo", "SignalLevel": 4 }, "geometry": { "type": "Point", "coordinates": [ 137.715251842857725, 36.399552033599271 ] } },
{ "type": "Feature", "properties": { "Building": "燕山荘", "Floor": "2F", "Carrier": "docomo", "SignalLevel": 4 }, "geometry": { "type": "Point", "coordinates": [ 137.715250852420951, 36.399526282242917 ] } },
{ "type": "Feature", "properties": { "Building": "燕山荘", "Floor": "2F", "Carrier": "docomo", "SignalLevel": 4 }, "geometry": { "type": "Point", "coordinates": [ 137.715283041616374, 36.399614431116603 ] } },
{ "type": "Feature", "properties": { "Building": "燕山荘", "Floor": "2F", "Carrier": "au", "SignalLevel": 1 }, "geometry": { "type": "Point", "coordinates": [ 137.715284527271535, 36.399404953736997 ] } },
{ "type": "Feature", "properties": { "Building": "燕山荘", "Floor": "2F", "Carrier": "au", "SignalLevel": 1 }, "geometry": { "type": "Point", "coordinates": [ 137.715286508145113, 36.399436647714055 ] } },
{ "type": "Feature", "properties": { "Building": "燕山荘", "Floor": "2F", "Carrier": "au", "SignalLevel": 1 }, "geometry": { "type": "Point", "coordinates": [ 137.715284032053148, 36.399463884725584 ] } },
{ "type": "Feature", "properties": { "Building": "燕山荘", "Floor": "2F", "Carrier": "au", "SignalLevel": 1 }, "geometry": { "type": "Point", "coordinates": [ 137.715285022489923, 36.399494093047466 ] } },
{ "type": "Feature", "properties": { "Building": "燕山荘", "Floor": "2F", "Carrier": "au", "SignalLevel": 1 }, "geometry": { "type": "Point", "coordinates": [ 137.715315726030184, 36.39952380615096 ] } },
{ "type": "Feature", "properties": { "Building": "燕山荘", "Floor": "2F", "Carrier": "au", "SignalLevel": 1 }, "geometry": { "type": "Point", "coordinates": [ 137.715315230811797, 36.399555004909622 ] } },
{ "type": "Feature", "properties": { "Building": "燕山荘", "Floor": "2F", "Carrier": "au", "SignalLevel": 1 }, "geometry": { "type": "Point", "coordinates": [ 137.715316221248571, 36.399585213231504 ] } },
{ "type": "Feature", "properties": { "Building": "燕山荘", "Floor": "2F", "Carrier": "au", "SignalLevel": 1 }, "geometry": { "type": "Point", "coordinates": [ 137.715284527271507, 36.399584222794715 ] } },
{ "type": "Feature", "properties": { "Building": "燕山荘", "Floor": "2F", "Carrier": "au", "SignalLevel": 1 }, "geometry": { "type": "Point", "coordinates": [ 137.71528551770831, 36.399614431116596 ] } },
{ "type": "Feature", "properties": { "Building": "燕山荘", "Floor": "2F", "Carrier": "au", "SignalLevel": 1 }, "geometry": { "type": "Point", "coordinates": [ 137.71525481416802, 36.399583727576328 ] } },
{ "type": "Feature", "properties": { "Building": "燕山荘", "Floor": "2F", "Carrier": "au", "SignalLevel": 1 }, "geometry": { "type": "Point", "coordinates": [ 137.715255309386407, 36.399555995346404 ] } },
{ "type": "Feature", "properties": { "Building": "燕山荘", "Floor": "2F", "Carrier": "au", "SignalLevel": 1 }, "geometry": { "type": "Point", "coordinates": [ 137.715255309386407, 36.399524796587741 ] } },
{ "type": "Feature", "properties": { "Building": "燕山荘", "Floor": "2F", "Carrier": "au", "SignalLevel": 1 }, "geometry": { "type": "Point", "coordinates": [ 137.71525481416802, 36.399493102610684 ] } },
{ "type": "Feature", "properties": { "Building": "燕山荘", "Floor": "2F", "Carrier": "au", "SignalLevel": 1 }, "geometry": { "type": "Point", "coordinates": [ 137.715226091501336, 36.399492112173895 ] } },
{ "type": "Feature", "properties": { "Building": "燕山荘", "Floor": "2F", "Carrier": "au", "SignalLevel": 1 }, "geometry": { "type": "Point", "coordinates": [ 137.715227081938139, 36.399464875162359 ] } },
{ "type": "Feature", "properties": { "Building": "燕山荘", "Floor": "2F", "Carrier": "au", "SignalLevel": 1 }, "geometry": { "type": "Point", "coordinates": [ 137.715226091501364, 36.399434666840477 ] } },
{ "type": "Feature", "properties": { "Building": "燕山荘", "Floor": "2F", "Carrier": "au", "SignalLevel": 1 }, "geometry": { "type": "Point", "coordinates": [ 137.715225596282977, 36.399402972863427 ] } },
{ "type": "Feature", "properties": { "Building": "燕山荘", "Floor": "1F", "Carrier": "au", "SignalLevel": 1 }, "geometry": { "type": "Point", "coordinates": [ 137.715258280696787, 36.399613935898181 ] } },
{ "type": "Feature", "properties": { "Building": "燕山荘", "Floor": "1F", "Carrier": "au", "SignalLevel": 1 }, "geometry": { "type": "Point", "coordinates": [ 137.7152528332945, 36.399586698886651 ] } },
{ "type": "Feature", "properties": { "Building": "燕山荘", "Floor": "1F", "Carrier": "au", "SignalLevel": 1 }, "geometry": { "type": "Point", "coordinates": [ 137.7152528332945, 36.399554014472812 ] } },
{ "type": "Feature", "properties": { "Building": "燕山荘", "Floor": "1F", "Carrier": "au", "SignalLevel": 1 }, "geometry": { "type": "Point", "coordinates": [ 137.715255309386464, 36.399526282242888 ] } },
{ "type": "Feature", "properties": { "Building": "燕山荘", "Floor": "1F", "Carrier": "au", "SignalLevel": 1 }, "geometry": { "type": "Point", "coordinates": [ 137.715228072374913, 36.399525787024494 ] } },
{ "type": "Feature", "properties": { "Building": "燕山荘", "Floor": "1F", "Carrier": "au", "SignalLevel": 1 }, "geometry": { "type": "Point", "coordinates": [ 137.715226091501364, 36.399555500127988 ] } },
{ "type": "Feature", "properties": { "Building": "燕山荘", "Floor": "1F", "Carrier": "au", "SignalLevel": 1 }, "geometry": { "type": "Point", "coordinates": [ 137.715282051179599, 36.399583727576299 ] } },
{ "type": "Feature", "properties": { "Building": "燕山荘", "Floor": "1F", "Carrier": "au", "SignalLevel": 1 }, "geometry": { "type": "Point", "coordinates": [ 137.715285517708338, 36.399555995346375 ] } },
{ "type": "Feature", "properties": { "Building": "燕山荘", "Floor": "1F", "Carrier": "au", "SignalLevel": 1 }, "geometry": { "type": "Point", "coordinates": [ 137.715285022489951, 36.39952727267967 ] } },
{ "type": "Feature", "properties": { "Building": "燕山荘", "Floor": "1F", "Carrier": "au", "SignalLevel": 1 }, "geometry": { "type": "Point", "coordinates": [ 137.715315230811825, 36.399526282242888 ] } },
{ "type": "Feature", "properties": { "Building": "燕山荘", "Floor": "1F", "Carrier": "au", "SignalLevel": 1 }, "geometry": { "type": "Point", "coordinates": [ 137.715314735593438, 36.399495083484226 ] } },
{ "type": "Feature", "properties": { "Building": "燕山荘", "Floor": "1F", "Carrier": "au", "SignalLevel": 1 }, "geometry": { "type": "Point", "coordinates": [ 137.715284527271535, 36.399496073921007 ] } },
{ "type": "Feature", "properties": { "Building": "燕山荘", "Floor": "1F", "Carrier": "au", "SignalLevel": 1 }, "geometry": { "type": "Point", "coordinates": [ 137.715342467823348, 36.399552528817637 ] } },
{ "type": "Feature", "properties": { "Building": "燕山荘", "Floor": "1F", "Carrier": "au", "SignalLevel": 1 }, "geometry": { "type": "Point", "coordinates": [ 137.71528403205312, 36.399404953736976 ] } },
{ "type": "Feature", "properties": { "Building": "燕山荘", "Floor": "1F", "Carrier": "au", "SignalLevel": 1 }, "geometry": { "type": "Point", "coordinates": [ 137.715285022489894, 36.399435657277245 ] } },
{ "type": "Feature", "properties": { "Building": "燕山荘", "Floor": "1F", "Carrier": "au", "SignalLevel": 1 }, "geometry": { "type": "Point", "coordinates": [ 137.715285022489866, 36.39946437994395 ] } },
{ "type": "Feature", "properties": { "Building": "燕山荘", "Floor": "1F", "Carrier": "au", "SignalLevel": 1 }, "geometry": { "type": "Point", "coordinates": [ 137.715254318949576, 36.399493597829043 ] } },
{ "type": "Feature", "properties": { "Building": "燕山荘", "Floor": "1F", "Carrier": "au", "SignalLevel": 1 }, "geometry": { "type": "Point", "coordinates": [ 137.715313249938163, 36.399584222794687 ] } },
{ "type": "Feature", "properties": { "Building": "燕山荘", "Floor": "1F", "Carrier": "au", "SignalLevel": 1 }, "geometry": { "type": "Point", "coordinates": [ 137.715314240374937, 36.39955252881763 ] } },
{ "type": "Feature", "properties": { "Building": "燕山荘", "Floor": "1F", "Carrier": "docomo", "SignalLevel": 3 }, "geometry": { "type": "Point", "coordinates": [ 137.715283536834647, 36.399407429828926 ] } },
{ "type": "Feature", "properties": { "Building": "燕山荘", "Floor": "1F", "Carrier": "docomo", "SignalLevel": 4 }, "geometry": { "type": "Point", "coordinates": [ 137.715285022489837, 36.399438628587589 ] } },
{ "type": "Feature", "properties": { "Building": "燕山荘", "Floor": "1F", "Carrier": "docomo", "SignalLevel": 4 }, "geometry": { "type": "Point", "coordinates": [ 137.715285517708253, 36.399464875162337 ] } },
{ "type": "Feature", "properties": { "Building": "燕山荘", "Floor": "1F", "Carrier": "docomo", "SignalLevel": 4 }, "geometry": { "type": "Point", "coordinates": [ 137.715285022489866, 36.399495083484219 ] } },
{ "type": "Feature", "properties": { "Building": "燕山荘", "Floor": "1F", "Carrier": "docomo", "SignalLevel": 4 }, "geometry": { "type": "Point", "coordinates": [ 137.715314735593353, 36.399495578702613 ] } },
{ "type": "Feature", "properties": { "Building": "燕山荘", "Floor": "1F", "Carrier": "docomo", "SignalLevel": 4 }, "geometry": { "type": "Point", "coordinates": [ 137.71531374515655, 36.399525787024494 ] } },
{ "type": "Feature", "properties": { "Building": "燕山荘", "Floor": "1F", "Carrier": "docomo", "SignalLevel": 4 }, "geometry": { "type": "Point", "coordinates": [ 137.715346429570388, 36.399555004909594 ] } },
{ "type": "Feature", "properties": { "Building": "燕山荘", "Floor": "1F", "Carrier": "docomo", "SignalLevel": 4 }, "geometry": { "type": "Point", "coordinates": [ 137.715314735593324, 36.399555995346375 ] } },
{ "type": "Feature", "properties": { "Building": "燕山荘", "Floor": "1F", "Carrier": "docomo", "SignalLevel": 4 }, "geometry": { "type": "Point", "coordinates": [ 137.715314735593324, 36.39958620366825 ] } },
{ "type": "Feature", "properties": { "Building": "燕山荘", "Floor": "1F", "Carrier": "docomo", "SignalLevel": 4 }, "geometry": { "type": "Point", "coordinates": [ 137.715285022489837, 36.399615916771737 ] } },
{ "type": "Feature", "properties": { "Building": "燕山荘", "Floor": "1F", "Carrier": "docomo", "SignalLevel": 4 }, "geometry": { "type": "Point", "coordinates": [ 137.715283536834647, 36.399585213231461 ] } },
{ "type": "Feature", "properties": { "Building": "燕山荘", "Floor": "1F", "Carrier": "docomo", "SignalLevel": 4 }, "geometry": { "type": "Point", "coordinates": [ 137.715285022489809, 36.399555995346361 ] } },
{ "type": "Feature", "properties": { "Building": "燕山荘", "Floor": "1F", "Carrier": "docomo", "SignalLevel": 4 }, "geometry": { "type": "Point", "coordinates": [ 137.715284032053034, 36.399526777461261 ] } },
{ "type": "Feature", "properties": { "Building": "燕山荘", "Floor": "1F", "Carrier": "docomo", "SignalLevel": 4 }, "geometry": { "type": "Point", "coordinates": [ 137.715254814167935, 36.399615421553335 ] } },
{ "type": "Feature", "properties": { "Building": "燕山荘", "Floor": "1F", "Carrier": "docomo", "SignalLevel": 4 }, "geometry": { "type": "Point", "coordinates": [ 137.715255309386322, 36.399585213231454 ] } },
{ "type": "Feature", "properties": { "Building": "燕山荘", "Floor": "1F", "Carrier": "docomo", "SignalLevel": 4 }, "geometry": { "type": "Point", "coordinates": [ 137.715255309386322, 36.399555004909573 ] } },
{ "type": "Feature", "properties": { "Building": "燕山荘", "Floor": "1F", "Carrier": "docomo", "SignalLevel": 4 }, "geometry": { "type": "Point", "coordinates": [ 137.715253328512745, 36.399524301369297 ] } },
{ "type": "Feature", "properties": { "Building": "燕山荘", "Floor": "1F", "Carrier": "docomo", "SignalLevel": 4 }, "geometry": { "type": "Point", "coordinates": [ 137.715254318949547, 36.399496073920986 ] } },
{ "type": "Feature", "properties": { "Building": "燕山荘", "Floor": "1F", "Carrier": "docomo", "SignalLevel": 4 }, "geometry": { "type": "Point", "coordinates": [ 137.715226586719609, 36.399554014472784 ] } },
{ "type": "Feature", "properties": { "Building": "燕山荘", "Floor": "1F", "Carrier": "docomo", "SignalLevel": 4 }, "geometry": { "type": "Point", "coordinates": [ 137.715224605846061, 36.399524796587684 ] } },
{ "type": "Feature", "properties": { "Building": "燕山荘", "Floor": "1F", "Carrier": "au", "SignalLevel": 1 }, "geometry": { "type": "Point", "coordinates": [ 137.715220955258644, 36.399253749501078 ] } },
{ "type": "Feature", "properties": { "Building": "燕山荘", "Floor": "1F", "Carrier": "au", "SignalLevel": 1 }, "geometry": { "type": "Point", "coordinates": [ 137.715256500982207, 36.399253749501071 ] } },
{ "type": "Feature", "properties": { "Building": "燕山荘", "Floor": "1F", "Carrier": "docomo", "SignalLevel": 4 }, "geometry": { "type": "Point", "coordinates": [ 137.715283160274879, 36.39913489348789 ] } }
]
}
